IRIDIUM 112             
1 41925U 17003J   24315.79895599  .00000707  00000+0  24537-3 0  9995
2 41925  86.3953 332.1078 0002250 102.4607 257.6840 14.34222444409656
IRIDIUM 111             
1 41926U 17003K   24315.78627853  .00001008  00000+0  35296-3 0  9990
2 41926  86.3956 332.1708 0002378  92.9290 267.2178 14.34219434409636
IRIDIUM 113             
1 42803U 17039A   24315.62670298  .00001125  00000+0  39455-3 0  9999
2 42803  86.4022 206.0002 0002233  93.5105 266.6347 14.34217920387548
IRIDIUM 123             
1 42804U 17039B   24315.73794365  .00001405  00000+0  49443-3 0  9993
2 42804  86.3996 237.4046 0002504  79.2731 280.8747 14.34212481386325
IRIDIUM 115             
1 42806U 17039D   24315.97689153  .00002053  00000+0  60429-3 0  9996
2 42806  86.4556 205.7592 0002557  79.3341 280.8147 14.43271277390147
IRIDIUM 117             
1 42808U 17039F   24315.50961754  .00000895  00000+0  31250-3 0  9999
2 42808  86.3988 237.4637 0002469  81.7434 278.4042 14.34219107386316
